{"type": "FeatureCollection", "features": [ {"type": "Feature", "properties": {"norad_id": 34117, "name": "COSMOS 2251 DEB", "group": "cosmos-2251-debris", "lat": -28.10648725253823, "lon": -174.21457474520352, "alt_km": 790.7203090067151, "timestamp": "2025-12-05T14:45:15.691263+00:00", "meta": {"OBJECT_NAME": "COSMOS 2251 DEB", "OBJECT_ID": "1993-036KN", "EPOCH": "2025-12-04T11:06:45.533664", "MEAN_MOTION": 14.39961661, "ECCENTRICITY": 0.0054384, "INCLINATION": 74.0402, "RA_OF_ASC_NODE": 359.1204, "ARG_OF_PERICENTER": 78.0208, "MEAN_ANOMALY": 282.7036, "EPHEMERIS_TYPE": 0, "CLASSIFICATION_TYPE": "U", "NORAD_CAT_ID": 34117, "ELEMENT_SET_NO": 999, "REV_AT_EPOCH": 88004, "BSTAR": 0.001319, "MEAN_MOTION_DOT": 4.2e-05, "MEAN_MOTION_DDOT": 0}, "tle": {"line1": "1 34117U 93036KN  25338.46302701  .00004200  00000+0  13190-2 0  9992", "line2": "2 34117  74.0402 359.1204 0054384  78.0208 282.7036 14.39961661880042"}}, "geometry": {"type": "Point", "coordinates": [-174.21457474520352, -28.10648725253823]}}, {"type": "Feature", "properties": {"norad_id": 34118, "name": "COSMOS 2251 DEB", "group": "cosmos-2251-debris", "lat": -17.412475683869193, "lon": -101.46050743876872, "alt_km": 608.1905533374666, "timestamp": "2025-12-05T14:45:15.691273+00:00", "meta": {"OBJECT_NAME": "COSMOS 2251 DEB", "OBJECT_ID": "1993-036KP", "EPOCH": "2025-12-04T05:46:52.559904", "MEAN_MOTION": 14.93384561, "ECCENTRICITY": 0.0059977, "INCLINATION": 73.9532, "RA_OF_ASC_NODE": 266.4953, "ARG_OF_PERICENTER": 98.8912, "MEAN_ANOMALY": 60.2244, "EPHEMERIS_TYPE": 0, "CLASSIFICATION_TYPE": "U", "NORAD_CAT_ID": 34118, "ELEMENT_SET_NO": 999, "REV_AT_EPOCH": 89049, "BSTAR": 0.0050046, "MEAN_MOTION_DOT": 0.00054799, "MEAN_MOTION_DDOT": 0}, "tle": {"line1": "1 34118U 93036KP  25338.24088611  .00054799  00000+0  50046-2 0  9999", "line2": "2 34118  73.9532 266.4953 0059977  98.8912  60.2244 14.93384561890499"}}, "geometry": {"type": "Point", "coordinates": [-101.46050743876872, -17.412475683869193]}}, {"type": "Feature", "properties": {"norad_id": 34120, "name": "COSMOS 2251 DEB", "group": "cosmos-2251-debris", "lat": -52.34351155569466, "lon": -153.27853490888216, "alt_km": 955.1185215146152, "timestamp": "2025-12-05T14:45:15.691283+00:00", "meta": {"OBJECT_NAME": "COSMOS 2251 DEB", "OBJECT_ID": "1993-036KR", "EPOCH": "2025-12-04T10:40:19.263360", "MEAN_MOTION": 13.98669311, "ECCENTRICITY": 0.0181606, "INCLINATION": 73.9917, "RA_OF_ASC_NODE": 230.588, "ARG_OF_PERICENTER": 60.1437, "MEAN_ANOMALY": 116.984, "EPHEMERIS_TYPE": 0, "CLASSIFICATION_TYPE": "U", "NORAD_CAT_ID": 34120, "ELEMENT_SET_NO": 999, "REV_AT_EPOCH": 85864, "BSTAR": 0.00067224, "MEAN_MOTION_DOT": 1.089e-05, "MEAN_MOTION_DDOT": 0}, "tle": {"line1": "1 34120U 93036KR  25338.44466740  .00001089  00000+0  67224-3 0  9998", "line2": "2 34120  73.9917 230.5880 0181606  60.1437 116.9840 13.98669311858644"}}, "geometry": {"type": "Point", "coordinates": [-153.27853490888216, -52.34351155569466]}}, {"type": "Feature", "properties": {"norad_id": 34121, "name": "COSMOS 2251 DEB", "group": "cosmos-2251-debris", "lat": -25.56277300849465, "lon": 101.48760201772632, "alt_km": 759.512829913001, "timestamp": "2025-12-05T14:45:15.691293+00:00", "meta": {"OBJECT_NAME": "COSMOS 2251 DEB", "OBJECT_ID": "1993-036KS", "EPOCH": "2025-12-04T17:00:44.886240", "MEAN_MOTION": 13.91887575, "ECCENTRICITY": 0.0239803, "INCLINATION": 73.9922, "RA_OF_ASC_NODE": 110.9316, "ARG_OF_PERICENTER": 318.1037, "MEAN_ANOMALY": 156.9323, "EPHEMERIS_TYPE": 0, "CLASSIFICATION_TYPE": "U", "NORAD_CAT_ID": 34121, "ELEMENT_SET_NO": 999, "REV_AT_EPOCH": 85013, "BSTAR": 0.0020218, "MEAN_MOTION_DOT": 3.233e-05, "MEAN_MOTION_DDOT": 0}, "tle": {"line1": "1 34121U 93036KS  25338.70885285  .00003233  00000+0  20218-2 0  9991", "line2": "2 34121  73.9922 110.9316 0239803 318.1037 156.9323 13.91887575850134"}}, "geometry": {"type": "Point", "coordinates": [101.48760201772632, -25.56277300849465]}}, {"type": "Feature", "properties": {"norad_id": 34122, "name": "COSMOS 2251 DEB", "group": "cosmos-2251-debris", "lat": 27.39672824687398, "lon": -56.19255159961607, "alt_km": 705.0927083176011, "timestamp": "2025-12-05T14:45:15.691314+00:00", "meta": {"OBJECT_NAME": "COSMOS 2251 DEB", "OBJECT_ID": "1993-036KT", "EPOCH": "2025-12-04T12:06:03.197088", "MEAN_MOTION": 14.6488506, "ECCENTRICITY": 0.0083875, "INCLINATION": 74.0347, "RA_OF_ASC_NODE": 134.4754, "ARG_OF_PERICENTER": 33.7194, "MEAN_ANOMALY": 22.46, "EPHEMERIS_TYPE": 0, "CLASSIFICATION_TYPE": "U", "NORAD_CAT_ID": 34122, "ELEMENT_SET_NO": 999, "REV_AT_EPOCH": 88564, "BSTAR": 0.002815, "MEAN_MOTION_DOT": 0.0001585, "MEAN_MOTION_DDOT": 0}, "tle": {"line1": "1 34122U 93036KT  25338.50420367  .00015850  00000+0  28150-2 0  9997", "line2": "2 34122  74.0347 134.4754 0083875  33.7194  22.4600 14.64885060885642"}}, "geometry": {"type": "Point", "coordinates": [-56.19255159961607, 27.39672824687398]}}, {"type": "Feature", "properties": {"norad_id": 34127, "name": "COSMOS 2251 DEB", "group": "cosmos-2251-debris", "lat": -17.924581504216597, "lon": -117.99697914499157, "alt_km": 749.5477213359336, "timestamp": "2025-12-05T14:45:15.691326+00:00", "meta": {"OBJECT_NAME": "COSMOS 2251 DEB", "OBJECT_ID": "1993-036KY", "EPOCH": "2025-12-04T16:35:40.135200", "MEAN_MOTION": 14.31412703, "ECCENTRICITY": 0.0114728, "INCLINATION": 74.1803, "RA_OF_ASC_NODE": 58.4084, "ARG_OF_PERICENTER": 260.2974, "MEAN_ANOMALY": 223.2751, "EPHEMERIS_TYPE": 0, "CLASSIFICATION_TYPE": "U", "NORAD_CAT_ID": 34127, "ELEMENT_SET_NO": 999, "REV_AT_EPOCH": 86656, "BSTAR": 0.0044991, "MEAN_MOTION_DOT": 0.00012825, "MEAN_MOTION_DDOT": 0}, "tle": {"line1": "1 34127U 93036KY  25338.69143675  .00012825  00000+0  44991-2 0  9996", "line2": "2 34127  74.1803  58.4084 0114728 260.2974 223.2751 14.31412703866563"}}, "geometry": {"type": "Point", "coordinates": [-117.99697914499157, -17.924581504216597]}}, {"type": "Feature", "properties": {"norad_id": 34128, "name": "COSMOS 2251 DEB", "group": "cosmos-2251-debris", "lat": 62.21453262344606, "lon": -15.744784044622335, "alt_km": 540.1158164744265, "timestamp": "2025-12-05T14:45:15.691336+00:00", "meta": {"OBJECT_NAME": "COSMOS 2251 DEB", "OBJECT_ID": "1993-036KZ", "EPOCH": "2025-12-04T08:37:42.063168", "MEAN_MOTION": 15.00511448, "ECCENTRICITY": 0.0026401, "INCLINATION": 73.9995, "RA_OF_ASC_NODE": 313.8168, "ARG_OF_PERICENTER": 67.1471, "MEAN_ANOMALY": 61.7196, "EPHEMERIS_TYPE": 0, "CLASSIFICATION_TYPE": "U", "NORAD_CAT_ID": 34128, "ELEMENT_SET_NO": 999, "REV_AT_EPOCH": 89041, "BSTAR": 0.0050766, "MEAN_MOTION_DOT": 0.00065021, "MEAN_MOTION_DDOT": 0}, "tle": {"line1": "1 34128U 93036KZ  25338.35951462  .00065021  00000+0  50766-2 0  9994", "line2": "2 34128  73.9995 313.8168 0026401  67.1471  61.7196 15.00511448890412"}}, "geometry": {"type": "Point", "coordinates": [-15.744784044622335, 62.21453262344606]}}, {"type": "Feature", "properties": {"norad_id": 34129, "name": "COSMOS 2251 DEB", "group": "cosmos-2251-debris", "lat": -73.97733255603602, "lon": -92.00117041288526, "alt_km": 672.5898611828452, "timestamp": "2025-12-05T14:45:15.691346+00:00", "meta": {"OBJECT_NAME": "COSMOS 2251 DEB", "OBJECT_ID": "1993-036LA", "EPOCH": "2025-12-04T11:29:41.738784", "MEAN_MOTION": 14.75519561, "ECCENTRICITY": 0.0032686, "INCLINATION": 74.035, "RA_OF_ASC_NODE": 355.6889, "ARG_OF_PERICENTER": 79.9846, "MEAN_ANOMALY": 280.5013, "EPHEMERIS_TYPE": 0, "CLASSIFICATION_TYPE": "U", "NORAD_CAT_ID": 34129, "ELEMENT_SET_NO": 999, "REV_AT_EPOCH": 61176, "BSTAR": 0.0030605, "MEAN_MOTION_DOT": 0.00021055, "MEAN_MOTION_DDOT": 0}, "tle": {"line1": "1 34129U 93036LA  25338.47895531  .00021055  00000+0  30605-2 0  9991", "line2": "2 34129  74.0350 355.6889 0032686  79.9846 280.5013 14.75519561611766"}}, "geometry": {"type": "Point", "coordinates": [-92.00117041288526, -73.97733255603602]}}, {"type": "Feature", "properties": {"norad_id": 34136, "name": "COSMOS 2251 DEB", "group": "cosmos-2251-debris", "lat": -44.05241071837505, "lon": 40.59171973279916, "alt_km": 676.103336186191, "timestamp": "2025-12-05T14:45:15.691356+00:00", "meta": {"OBJECT_NAME": "COSMOS 2251 DEB", "OBJECT_ID": "1993-036LH", "EPOCH": "2025-12-04T15:11:18.499200", "MEAN_MOTION": 14.79979434, "ECCENTRICITY": 0.0086476, "INCLINATION": 74.0221, "RA_OF_ASC_NODE": 58.6198, "ARG_OF_PERICENTER": 183.7293, "MEAN_ANOMALY": 299.8928, "EPHEMERIS_TYPE": 0, "CLASSIFICATION_TYPE": "U", "NORAD_CAT_ID": 34136, "ELEMENT_SET_NO": 999, "REV_AT_EPOCH": 89890, "BSTAR": 0.0012563, "MEAN_MOTION_DOT": 0.00010104, "MEAN_MOTION_DDOT": 0}, "tle": {"line1": "1 34136U 93036LH  25338.63285300  .00010104  00000+0  12563-2 0  9990", "line2": "2 34136  74.0221  58.6198 0086476 183.7293 299.8928 14.79979434898904"}}, "geometry": {"type": "Point", "coordinates": [40.59171973279916, -44.05241071837505]}}, {"type": "Feature", "properties": {"norad_id": 34139, "name": "COSMOS 2251 DEB", "group": "cosmos-2251-debris", "lat": -31.997398467811927, "lon": 97.94764640562354, "alt_km": 720.1773213295237, "timestamp": "2025-12-05T14:45:15.691367+00:00", "meta": {"OBJECT_NAME": "COSMOS 2251 DEB", "OBJECT_ID": "1993-036LL", "EPOCH": "2025-12-04T05:24:27.316224", "MEAN_MOTION": 14.58865504, "ECCENTRICITY": 0.0042615, "INCLINATION": 74.0314, "RA_OF_ASC_NODE": 270.2878, "ARG_OF_PERICENTER": 342.6571, "MEAN_ANOMALY": 136.6863, "EPHEMERIS_TYPE": 0, "CLASSIFICATION_TYPE": "U", "NORAD_CAT_ID": 34139, "ELEMENT_SET_NO": 999, "REV_AT_EPOCH": 88025, "BSTAR": 0.0037604, "MEAN_MOTION_DOT": 0.00017845, "MEAN_MOTION_DDOT": 0}, "tle": {"line1": "1 34139U 93036LL  25338.22531616  .00017845  00000+0  37604-2 0  9994", "line2": "2 34139  74.0314 270.2878 0042615 342.6571 136.6863 14.58865504880253"}}, "geometry": {"type": "Point", "coordinates": [97.94764640562354, -31.997398467811927]}}]}